COSMOS 1975             
1 19573U 88093A   26150.68308272  .00008657  00000+0  30525-3 0  9996
2 19573  82.5210  35.3057 0009653 236.7082 123.3234 15.29072099 31937
SL-14 R/B               
1 19574U 88093B   26150.56024794  .00000569  00000+0  62494-4 0  9993
2 19574  82.5301 325.1959 0021915 124.8557 297.2619 14.85726518 13176
INTERCOSMOS 24          
1 20261U 89080A   26150.70166639  .00000958  00000+0  27295-3 0  9997
2 20261  82.6080  51.0190 1188192 102.4446 271.1944 12.59631758677122
SL-14 R/B               
1 20262U 89080C   26150.88316024  .00000612  00000+0  18167-3 0  9997
2 20262  82.5906 120.4232 1229802 356.9821   2.4291 12.50555871670422
DELTA 1 R/B             
1 20323U 89089B   26150.56211362  .00000430  00000+0  11516-3 0  9997
2 20323  97.0639 344.9399 0067795 222.9476 136.6418 14.50718118907600
ARIANE 40 R/B           
1 20443U 90005H   26150.11665641  .00000322  00000+0  11576-3 0  9990
2 20443  98.2967 208.2936 0009232 325.8644  34.1950 14.39916614904520
DELTA 2 R/B(1)          
1 20453U 90008B   26150.86652983  .00082611  00000+0  67407-3 0  9996
2 20453  35.6023 351.2985 0070312 311.0094  48.4580 15.66062685938980
COSMOS 2058             
1 20465U 90010A   26150.53123095  .00003785  00000+0  21925-3 0  9993
2 20465  82.4663 326.7703 0010779  56.1169 304.1085 15.11894091954602
SL-14 R/B               
1 20466U 90010B   26150.56518032  .00000435  00000+0  49651-4 0  9992
2 20466  82.5025 190.4940 0020597  34.0408 326.2124 14.83634211940625
SL-14 R/B               
1 20511U 90018B   26150.59418650  .00000444  00000+0  52700-4 0  9998
2 20511  82.5199 146.5521 0016219 177.1039 183.0272 14.82203626934717
HST                     
1 20580U 90037B   26150.53921556  .00006911  00000+0  21966-3 0  9997
2 20580  28.4720 201.1735 0001465 321.2424  38.8067 15.30552064785860
SL-16 R/B               
1 20625U 90046B   26150.34600122 -.00000108  00000+0 -31252-4 0  9993
2 20625  70.9969 126.4180 0014521 189.2670 170.8187 14.15018587859942
