[
    {
        "OBJECT_NAME": "COSMOS 1975",
        "OBJECT_ID": "1988-093A",
        "EPOCH": "2026-05-30T16:23:38.347008",
        "MEAN_MOTION": 15.29072099,
        "ECCENTRICITY": 0.0009653,
        "INCLINATION": 82.521,
        "RA_OF_ASC_NODE": 35.3057,
        "ARG_OF_PERICENTER": 236.7082,
        "MEAN_ANOMALY": 123.3234,
        "EPHEMERIS_TYPE": 0,
        "CLASSIFICATION_TYPE": "U",
        "NORAD_CAT_ID": 19573,
        "ELEMENT_SET_NO": 999,
        "REV_AT_EPOCH": 3193,
        "BSTAR": 0.00030525,
        "MEAN_MOTION_DOT": 8.657e-05,
        "MEAN_MOTION_DDOT": 0
    },
    {
        "OBJECT_NAME": "SL-14 R/B",
        "OBJECT_ID": "1988-093B",
        "EPOCH": "2026-05-30T13:26:45.422016",
        "MEAN_MOTION": 14.85726518,
        "ECCENTRICITY": 0.0021915,
        "INCLINATION": 82.5301,
        "RA_OF_ASC_NODE": 325.1959,
        "ARG_OF_PERICENTER": 124.8557,
        "MEAN_ANOMALY": 297.2619,
        "EPHEMERIS_TYPE": 0,
        "CLASSIFICATION_TYPE": "U",
        "NORAD_CAT_ID": 19574,
        "ELEMENT_SET_NO": 999,
        "REV_AT_EPOCH": 1317,
        "BSTAR": 6.2494e-05,
        "MEAN_MOTION_DOT": 5.69e-06,
        "MEAN_MOTION_DDOT": 0
    },
    {
        "OBJECT_NAME": "INTERCOSMOS 24",
        "OBJECT_ID": "1989-080A",
        "EPOCH": "2026-05-30T16:50:23.976096",
        "MEAN_MOTION": 12.59631758,
        "ECCENTRICITY": 0.1188192,
        "INCLINATION": 82.608,
        "RA_OF_ASC_NODE": 51.019,
        "ARG_OF_PERICENTER": 102.4446,
        "MEAN_ANOMALY": 271.1944,
        "EPHEMERIS_TYPE": 0,
        "CLASSIFICATION_TYPE": "U",
        "NORAD_CAT_ID": 20261,
        "ELEMENT_SET_NO": 999,
        "REV_AT_EPOCH": 67712,
        "BSTAR": 0.00027295,
        "MEAN_MOTION_DOT": 9.58e-06,
        "MEAN_MOTION_DDOT": 0
    },
    {
        "OBJECT_NAME": "SL-14 R/B",
        "OBJECT_ID": "1989-080C",
        "EPOCH": "2026-05-30T21:11:45.044736",
        "MEAN_MOTION": 12.50555871,
        "ECCENTRICITY": 0.1229802,
        "INCLINATION": 82.5906,
        "RA_OF_ASC_NODE": 120.4232,
        "ARG_OF_PERICENTER": 356.9821,
        "MEAN_ANOMALY": 2.4291,
        "EPHEMERIS_TYPE": 0,
        "CLASSIFICATION_TYPE": "U",
        "NORAD_CAT_ID": 20262,
        "ELEMENT_SET_NO": 999,
        "REV_AT_EPOCH": 67042,
        "BSTAR": 0.00018167,
        "MEAN_MOTION_DOT": 6.12e-06,
        "MEAN_MOTION_DDOT": 0
    },
    {
        "OBJECT_NAME": "DELTA 1 R/B",
        "OBJECT_ID": "1989-089B",
        "EPOCH": "2026-05-30T13:29:26.616768",
        "MEAN_MOTION": 14.50718118,
        "ECCENTRICITY": 0.0067795,
        "INCLINATION": 97.0639,
        "RA_OF_ASC_NODE": 344.9399,
        "ARG_OF_PERICENTER": 222.9476,
        "MEAN_ANOMALY": 136.6418,
        "EPHEMERIS_TYPE": 0,
        "CLASSIFICATION_TYPE": "U",
        "NORAD_CAT_ID": 20323,
        "ELEMENT_SET_NO": 999,
        "REV_AT_EPOCH": 90760,
        "BSTAR": 0.00011516,
        "MEAN_MOTION_DOT": 4.3e-06,
        "MEAN_MOTION_DDOT": 0
    },
    {
        "OBJECT_NAME": "ARIANE 40 R/B",
        "OBJECT_ID": "1990-005H",
        "EPOCH": "2026-05-30T02:47:59.113824",
        "MEAN_MOTION": 14.39916614,
        "ECCENTRICITY": 0.00092329,
        "INCLINATION": 98.2967,
        "RA_OF_ASC_NODE": 208.2936,
        "ARG_OF_PERICENTER": 325.8644,
        "MEAN_ANOMALY": 34.195,
        "EPHEMERIS_TYPE": 0,
        "CLASSIFICATION_TYPE": "U",
        "NORAD_CAT_ID": 20443,
        "ELEMENT_SET_NO": 999,
        "REV_AT_EPOCH": 90452,
        "BSTAR": 0.00011576364,
        "MEAN_MOTION_DOT": 3.22e-06,
        "MEAN_MOTION_DDOT": 0
    },
    {
        "OBJECT_NAME": "DELTA 2 R/B(1)",
        "OBJECT_ID": "1990-008B",
        "EPOCH": "2026-05-30T20:47:48.177312",
        "MEAN_MOTION": 15.66062685,
        "ECCENTRICITY": 0.0070312,
        "INCLINATION": 35.6023,
        "RA_OF_ASC_NODE": 351.2985,
        "ARG_OF_PERICENTER": 311.0094,
        "MEAN_ANOMALY": 48.458,
        "EPHEMERIS_TYPE": 0,
        "CLASSIFICATION_TYPE": "U",
        "NORAD_CAT_ID": 20453,
        "ELEMENT_SET_NO": 999,
        "REV_AT_EPOCH": 93898,
        "BSTAR": 0.00067407,
        "MEAN_MOTION_DOT": 0.00082611,
        "MEAN_MOTION_DDOT": 0
    },
    {
        "OBJECT_NAME": "COSMOS 2058",
        "OBJECT_ID": "1990-010A",
        "EPOCH": "2026-05-30T12:44:58.354080",
        "MEAN_MOTION": 15.11894091,
        "ECCENTRICITY": 0.0010779,
        "INCLINATION": 82.4663,
        "RA_OF_ASC_NODE": 326.7703,
        "ARG_OF_PERICENTER": 56.1169,
        "MEAN_ANOMALY": 304.1085,
        "EPHEMERIS_TYPE": 0,
        "CLASSIFICATION_TYPE": "U",
        "NORAD_CAT_ID": 20465,
        "ELEMENT_SET_NO": 999,
        "REV_AT_EPOCH": 95460,
        "BSTAR": 0.00021925,
        "MEAN_MOTION_DOT": 3.785e-05,
        "MEAN_MOTION_DDOT": 0
    },
    {
        "OBJECT_NAME": "SL-14 R/B",
        "OBJECT_ID": "1990-010B",
        "EPOCH": "2026-05-30T13:33:51.579648",
        "MEAN_MOTION": 14.83634211,
        "ECCENTRICITY": 0.0020597,
        "INCLINATION": 82.5025,
        "RA_OF_ASC_NODE": 190.494,
        "ARG_OF_PERICENTER": 34.0408,
        "MEAN_ANOMALY": 326.2124,
        "EPHEMERIS_TYPE": 0,
        "CLASSIFICATION_TYPE": "U",
        "NORAD_CAT_ID": 20466,
        "ELEMENT_SET_NO": 999,
        "REV_AT_EPOCH": 94062,
        "BSTAR": 4.9651e-05,
        "MEAN_MOTION_DOT": 4.35e-06,
        "MEAN_MOTION_DDOT": 0
    },
    {
        "OBJECT_NAME": "SL-14 R/B",
        "OBJECT_ID": "1990-018B",
        "EPOCH": "2026-05-30T14:15:37.713600",
        "MEAN_MOTION": 14.82203626,
        "ECCENTRICITY": 0.0016219,
        "INCLINATION": 82.5199,
        "RA_OF_ASC_NODE": 146.5521,
        "ARG_OF_PERICENTER": 177.1039,
        "MEAN_ANOMALY": 183.0272,
        "EPHEMERIS_TYPE": 0,
        "CLASSIFICATION_TYPE": "U",
        "NORAD_CAT_ID": 20511,
        "ELEMENT_SET_NO": 999,
        "REV_AT_EPOCH": 93471,
        "BSTAR": 5.27e-05,
        "MEAN_MOTION_DOT": 4.44e-06,
        "MEAN_MOTION_DDOT": 0
    },
    {
        "OBJECT_NAME": "HST",
        "OBJECT_ID": "1990-037B",
        "EPOCH": "2026-05-30T12:56:28.224384",
        "MEAN_MOTION": 15.30552064,
        "ECCENTRICITY": 0.00014656,
        "INCLINATION": 28.472,
        "RA_OF_ASC_NODE": 201.1735,
        "ARG_OF_PERICENTER": 321.2424,
        "MEAN_ANOMALY": 38.8067,
        "EPHEMERIS_TYPE": 0,
        "CLASSIFICATION_TYPE": "U",
        "NORAD_CAT_ID": 20580,
        "ELEMENT_SET_NO": 999,
        "REV_AT_EPOCH": 78586,
        "BSTAR": 0.00021966039,
        "MEAN_MOTION_DOT": 6.911e-05,
        "MEAN_MOTION_DDOT": 0
    },
    {
        "OBJECT_NAME": "SL-16 R/B",
        "OBJECT_ID": "1990-046B",
        "EPOCH": "2026-05-30T08:18:14.505408",
        "MEAN_MOTION": 14.15018587,
        "ECCENTRICITY": 0.00145216,
        "INCLINATION": 70.9969,
        "RA_OF_ASC_NODE": 126.418,
        "ARG_OF_PERICENTER": 189.267,
        "MEAN_ANOMALY": 170.8187,
        "EPHEMERIS_TYPE": 0,
        "CLASSIFICATION_TYPE": "U",
        "NORAD_CAT_ID": 20625,
        "ELEMENT_SET_NO": 999,
        "REV_AT_EPOCH": 85994,
        "BSTAR": -3.1252477e-05,
        "MEAN_MOTION_DOT": -1.08e-06,
        "MEAN_MOTION_DDOT": 0
    }
]